WORLDVIEW-1 (WV-1)      
1 32060U 07041A   26187.85364007  .00004641  00000+0  19173-3 0  9998
2 32060  97.3892 307.3195 0000954 263.9722  96.1407 15.24494992 45878
WORLDVIEW-2 (WV-2)      
1 35946U 09055A   26187.85661737  .00000105  00000+0  49238-4 0  9998
2 35946  98.4759 261.0380 0004928 150.4468 209.6998 14.37905345878470
YAOGAN-10               
1 36834U 10038A   26187.89789444  .00001750  00000+0  20947-3 0  9990
2 36834  97.8969 211.1446 0001614  84.5037  36.1055 14.85411784860133
VNREDSAT 1              
1 39160U 13021B   26187.82962689  .00000438  00000+0  90468-4 0  9995
2 39160  97.9064 240.4914 0001669  82.1095 278.0298 14.64878208703168
WORLDVIEW-3 (WV-3)      
1 40115U 14048A   26187.84221623  .00000766  00000+0  95998-4 0  9992
2 40115  97.8560 262.4034 0000631 167.1098 193.0133 14.85054952644828
YAOGAN-21               
1 40143U 14053A   26187.89344606  .00004188  00000+0  16210-3 0  9992
2 40143  97.1465 227.2847 0008775  35.7468 324.4357 15.26680073657967
UMBRA-09                
1 60541U 24149CB  26187.70672133  .00012102  00000+0  58657-3 0  9998
2 60541  97.6968 275.2535 0001628 221.1820 138.9291 15.18680231103681
UMBRA-10                
1 60547U 24149CH  26187.70628014  .00012872  00000+0  62367-3 0  9990
2 60547  97.6973 275.2828 0001073 174.0706 186.0540 15.18677299103693
UMBRA-11                
1 66748U 25276CL  26187.71780315  .00015279  00000+0  56939-3 0  9997
2 66748  97.4185 262.2363 0001855 211.0304 149.0826 15.27537312 33474
UMBRA-12                
1 67371U 26004J   26187.72452134  .00003606  00000+0  38434-3 0  9997
2 67371  97.8020 186.2249 0007775  74.9094 285.2983 14.89486235 26211
